{"type": "FeatureCollection", "name": "Predios BPG ICA - Cauca", "features": [{"type": "Feature", "properties": {"nombre": "BERDUM", "propietario": "Maria Luisa Tintinago", "municipio": "Sotará", "vereda": "Piedra de León", "auditoria": "2026-08-24", "concepto": "Certificable", "F": "100.0%", "My": "96.15%", "Mn": "100.0%", "hallazgos": "1.2 Certificación de Hatos Libres", "observaciones": "NO: 1.2 Certificación de Hatos Libres (My)", "marker-color": "#2e7d32", "description": "<b>BERDUM</b><br/>Propietario: Maria Luisa Tintinago<br/>Sotará · Vereda Piedra de León<br/><b style='color:#2e7d32'>Certificable</b> (2026-08-24)<br/>F 100.0% · My 96.15% · Mn 100.0%<br/><i>Obs: NO: 1.2 Certificación de Hatos Libres (My)</i>"}, "geometry": {"type": "Point", "coordinates": [-76.54878, 2.2429825]}}, {"type": "Feature", "properties": {"nombre": "EL ARENAL", "propietario": "Francy Quira", "municipio": "Puracé", "vereda": "Campamento", "auditoria": "2026-08-24", "concepto": "Certificable", "F": "100.0%", "My": "96.0%", "Mn": "100.0%", "hallazgos": "1.2 Certificación de Hatos Libres; 4.2 Instalaciones de Ordeño Fijo", "observaciones": "NO: 1.2 Certificación de Hatos Libres (My); 4.2 Instalaciones de Ordeño Fijo (F)", "marker-color": "#2e7d32", "description": "<b>EL ARENAL</b><br/>Propietario: Francy Quira<br/>Puracé · Vereda Campamento<br/><b style='color:#2e7d32'>Certificable</b> (2026-08-24)<br/>F 100.0% · My 96.0% · Mn 100.0%<br/><i>Obs: NO: 1.2 Certificación de Hatos Libres (My); 4.2 Instalaciones de Ordeño Fijo (F)</i>"}, "geometry": {"type": "Point", "coordinates": [-76.631613, 2.454843]}}, {"type": "Feature", "properties": {"nombre": "EL ROSAL", "propietario": "Ilda Julieta Rios", "municipio": "Cajibío", "vereda": "La Unión", "auditoria": "2026-08-07", "concepto": "Certificable", "F": "100.0%", "My": "96.43%", "Mn": "100.0%", "hallazgos": "1.2 Certificación de Hatos Libres", "observaciones": "NO: 1.2 Certificación de Hatos Libres (My)", "marker-color": "#2e7d32", "description": "<b>EL ROSAL</b><br/>Propietario: Ilda Julieta Rios<br/>Cajibío · Vereda La Unión<br/><b style='color:#2e7d32'>Certificable</b> (2026-08-07)<br/>F 100.0% · My 96.43% · Mn 100.0%<br/><i>Obs: NO: 1.2 Certificación de Hatos Libres (My)</i>"}, "geometry": {"type": "Point", "coordinates": [-76.614733, 2.597141]}}, {"type": "Feature", "properties": {"nombre": "LA ESPERANZA", "propietario": "vianey alexandra mueces", "municipio": "Sotará", "vereda": "Piedra de León", "auditoria": "2026-08-24", "concepto": "Certificable", "F": "100.0%", "My": "96.15%", "Mn": "100.0%", "hallazgos": "1.2 Certificación de Hatos Libres", "observaciones": "NO: 1.2 Certificación de Hatos Libres (My)", "marker-color": "#2e7d32", "description": "<b>LA ESPERANZA</b><br/>Propietario: vianey alexandra mueces<br/>Sotará · Vereda Piedra de León<br/><b style='color:#2e7d32'>Certificable</b> (2026-08-24)<br/>F 100.0% · My 96.15% · Mn 100.0%<br/><i>Obs: NO: 1.2 Certificación de Hatos Libres (My)</i>"}, "geometry": {"type": "Point", "coordinates": [-76.55196, 2.24343]}}, {"type": "Feature", "properties": {"nombre": "LOMA LINDA", "propietario": "Fernando Salinas", "municipio": "Cajibio", "vereda": "La unión", "auditoria": "2026-08-24", "concepto": "Certificable", "F": "100.0%", "My": "92.31%", "Mn": "75.0%", "hallazgos": "1.2 Certificación de Hatos Libres; 3.2 Registro de Visitas; 7.6 Inventario de Alimentos", "observaciones": "NO: 1.2 Certificación de Hatos Libres (My); 3.2 Registro de Visitas (My); 7.6 Inventario de Alimentos (Mn)", "marker-color": "#2e7d32", "description": "<b>LOMA LINDA</b><br/>Propietario: Fernando Salinas<br/>Cajibio · Vereda La unión<br/><b style='color:#2e7d32'>Certificable</b> (2026-08-24)<br/>F 100.0% · My 92.31% · Mn 75.0%<br/><i>Obs: NO: 1.2 Certificación de Hatos Libres (My); 3.2 Registro de Visitas (My); 7.6 Inventario de Alimentos (Mn)</i>"}, "geometry": {"type": "Point", "coordinates": [-76.616737, 2.596842]}}, {"type": "Feature", "properties": {"nombre": "LOS ROBLES", "propietario": "Fundación universitaria Popayán", "municipio": "Timbio", "vereda": "El Roble", "auditoria": "2026-08-24", "concepto": "Certificable", "F": "100.0%", "My": "87.1%", "Mn": "75.0%", "hallazgos": "3.2 Registro de Visitas; 5.2 Registro de Temperatura; 6.10 Inventario de Productos; 6.12 Notificación de Eventos Adversos; 7.6 Inventario de Alimentos", "observaciones": "NO: 3.2 Registro de Visitas (My); 5.2 Registro de Temperatura (My); 6.10 Inventario de Productos (My); 6.12 Notificación de Eventos Adversos (My); 7.6 Inventario de Alimentos (Mn)", "marker-color": "#2e7d32", "description": "<b>LOS ROBLES</b><br/>Propietario: Fundación universitaria Popayán<br/>Timbio · Vereda El Roble<br/><b style='color:#2e7d32'>Certificable</b> (2026-08-24)<br/>F 100.0% · My 87.1% · Mn 75.0%<br/><i>Obs: NO: 3.2 Registro de Visitas (My); 5.2 Registro de Temperatura (My); 6.10 Inventario de Productos (My); 6.12 Notificación de Eventos Adversos (My); 7.6 Inventario de Alimentos (Mn)</i>"}, "geometry": {"type": "Point", "coordinates": [-76.657405, 2.388478]}}, {"type": "Feature", "properties": {"nombre": "SAN JOSÉ 5", "propietario": "Edison Lozada Mensa", "municipio": "Sotará", "vereda": "Piedra de León", "auditoria": "2026-08-24", "concepto": "Certificable", "F": "100.0%", "My": "96.15%", "Mn": "100.0%", "hallazgos": "1.2 Certificación de Hatos Libres", "observaciones": "NO: 1.2 Certificación de Hatos Libres (My)", "marker-color": "#2e7d32", "description": "<b>SAN JOSÉ 5</b><br/>Propietario: Edison Lozada Mensa<br/>Sotará · Vereda Piedra de León<br/><b style='color:#2e7d32'>Certificable</b> (2026-08-24)<br/>F 100.0% · My 96.15% · Mn 100.0%<br/><i>Obs: NO: 1.2 Certificación de Hatos Libres (My)</i>"}, "geometry": {"type": "Point", "coordinates": [-76.55459, 2.241723]}}, {"type": "Feature", "properties": {"nombre": "SANTA BÁRBARA", "propietario": "Leonel Sosa", "municipio": "Cajibío", "vereda": "Cairo", "auditoria": "2026-08-07", "concepto": "Aplazado", "F": "79.17%", "My": "75.86%", "Mn": "100.0%", "hallazgos": "1.2 Certificación de Hatos Libres; 1.5 Instructivo de Enfermedades; 1.7 Programa de Mastitis; 10.1 Capacitación del Personal; 3.2 Registro de Visitas; 3.3 Cuarentena; 4.7 Disposición Leche Anormal; 5.2 Registro de Temperatura; 6.10 Inventario de Productos; 6.5 Materias Primas como Medicamentos; 8.5 Manejo de Residuos; 8.7 Control de Plagas", "observaciones": "NO: 1.2 Certificación de Hatos Libres (My); 1.5 Instructivo de Enfermedades (F); 1.7 Programa de Mastitis (F); 10.1 Capacitación del Personal (F); 3.2 Registro de Visitas (My); 3.3 Cuarentena (My); 4.7 Disposición Leche Anormal (F); 5.2 Registro de Temperatura (My); 6.10 Inventario de Productos (My); 6.5 Materias Primas como Medicamentos (F); 8.5 Manejo de Residuos (My); 8.7 Control de Plagas (My)", "marker-color": "#c62828", "description": "<b>SANTA BÁRBARA</b><br/>Propietario: Leonel Sosa<br/>Cajibío · Vereda Cairo<br/><b style='color:#c62828'>Aplazado</b> (2026-08-07)<br/>F 79.17% · My 75.86% · Mn 100.0%<br/><i>Obs: NO: 1.2 Certificación de Hatos Libres (My); 1.5 Instructivo de Enfermedades (F); 1.7 Programa de Mastitis (F); 10.1 Capacitación del Personal (F); 3.2 Registro de Visitas (My); 3.3 Cuarentena (My); 4.7 Disposición Leche Anormal (F); 5.2 Registro de Temperatura (My); 6.10 Inventario de Productos (My); 6.5 Materias Primas como Medicamentos (F); 8.5 Manejo de Residuos (My); 8.7 Control de Plagas (My)</i>"}, "geometry": {"type": "Point", "coordinates": [-76.55906, 2.6075]}}]}